[{"OBJECT_NAME":"STARLINK-6048","OBJECT_ID":"2023-064M","EPOCH":"2026-03-09T10:50:18.571776","MEAN_MOTION":14.98327677,"ECCENTRICITY":0.00031903,"INCLINATION":70.0002,"RA_OF_ASC_NODE":144.9282,"ARG_OF_PERICENTER":269.7038,"MEAN_ANOMALY":90.3755,"EPHEMERIS_TYPE":0,"CLASSIFICATION_TYPE":"U","NORAD_CAT_ID":56459,"ELEMENT_SET_NO":999,"REV_AT_EPOCH":15520,"BSTAR":0.00033822676,"MEAN_MOTION_DOT":3.945e-5,"MEAN_MOTION_DDOT":0},{"OBJECT_NAME":"COSMOS 2228","OBJECT_ID":"1992-094A","EPOCH":"2026-03-09T22:06:22.986432","MEAN_MOTION":14.97191104,"ECCENTRICITY":0.00167811,"INCLINATION":82.5157,"RA_OF_ASC_NODE":237.0886,"ARG_OF_PERICENTER":303.9293,"MEAN_ANOMALY":56.0333,"EPHEMERIS_TYPE":0,"CLASSIFICATION_TYPE":"U","NORAD_CAT_ID":22286,"ELEMENT_SET_NO":999,"REV_AT_EPOCH":77609,"BSTAR":0.0002463535,"MEAN_MOTION_DOT":2.881e-5,"MEAN_MOTION_DDOT":0}]
